{
  "type": "FeatureCollection",
  "features": [
    {
      "type": "Feature",
      "properties": {
        "norad_id": 30504,
        "name": "FENGYUN 1C DEB",
        "group": "fengyun-1c-debris",
        "lat": -37.21017135477544,
        "lon": -152.01124716989247,
        "alt_km": 749.8102587327558,
        "timestamp": "2025-12-14T16:47:40.960438+00:00",
        "meta_object_name": "FENGYUN 1C DEB",
        "meta_object_id": "1999-025AHS",
        "meta_epoch": "2025-12-11T01:38:46.526784",
        "meta_mean_motion": 14.2048578,
        "meta_eccentricity": 0.01120841,
        "meta_inclination": 99.0255,
        "meta_ra_of_asc_node": 31.2149,
        "meta_arg_of_pericenter": 221.2173,
        "meta_mean_anomaly": 157.6074,
        "meta_ephemeris_type": 0,
        "meta_classification_type": "U",
        "meta_norad_cat_id": 30504,
        "meta_element_set_no": 999,
        "meta_rev_at_epoch": 97370,
        "meta_bstar": 0.00077210917,
        "meta_mean_motion_dot": 1.719e-05,
        "meta_mean_motion_ddot": 0,
        "tle_line1": "1 30504U 99025AHS 25345.06859406  .00001719  00000+0  77211-3 0  9992",
        "tle_line2": "2 30504  99.0255  31.2149 0112084 221.2173 157.6074 14.20485780973703"
      },
      "geometry": {
        "type": "Point",
        "coordinates": [
          -152.01124716989247,
          -37.21017135477544
        ]
      }
    },
    {
      "type": "Feature",
      "properties": {
        "norad_id": 30505,
        "name": "FENGYUN 1C DEB",
        "group": "fengyun-1c-debris",
        "lat": 51.24834034335016,
        "lon": -100.32599824507483,
        "alt_km": 828.0659268302734,
        "timestamp": "2025-12-14T16:47:40.960448+00:00",
        "meta_object_name": "FENGYUN 1C DEB",
        "meta_object_id": "1999-025AHT",
        "meta_epoch": "2025-12-13T17:15:53.868672",
        "meta_mean_motion": 14.22045469,
        "meta_eccentricity": 0.00636876,
        "meta_inclination": 98.926,
        "meta_ra_of_asc_node": 67.3902,
        "meta_arg_of_pericenter": 239.315,
        "meta_mean_anomaly": 272.9218,
        "meta_ephemeris_type": 0,
        "meta_classification_type": "U",
        "meta_norad_cat_id": 30505,
        "meta_element_set_no": 999,
        "meta_rev_at_epoch": 96937,
        "meta_bstar": 0.0020223158,
        "meta_mean_motion_dot": 4.522e-05,
        "meta_mean_motion_ddot": 0,
        "tle_line1": "1 30505U 99025AHT 25347.71937348  .00004522  00000+0  20223-2 0  9994",
        "tle_line2": "2 30505  98.9260  67.3902 0063687 239.3150 272.9218 14.22045469969371"
      },
      "geometry": {
        "type": "Point",
        "coordinates": [
          -100.32599824507483,
          51.24834034335016
        ]
      }
    },
    {
      "type": "Feature",
      "properties": {
        "norad_id": 30506,
        "name": "FENGYUN 1C DEB",
        "group": "fengyun-1c-debris",
        "lat": 62.205713589460885,
        "lon": -23.285451841166257,
        "alt_km": 849.7049309066024,
        "timestamp": "2025-12-14T16:47:40.960459+00:00",
        "meta_object_name": "FENGYUN 1C DEB",
        "meta_object_id": "1999-025AHU",
        "meta_epoch": "2025-12-13T23:42:36.900576",
        "meta_mean_motion": 14.08652089,
        "meta_eccentricity": 0.00702276,
        "meta_inclination": 98.757,
        "meta_ra_of_asc_node": 353.026,
        "meta_arg_of_pericenter": 344.4345,
        "meta_mean_anomaly": 70.4359,
        "meta_ephemeris_type": 0,
        "meta_classification_type": "U",
        "meta_norad_cat_id": 30506,
        "meta_element_set_no": 999,
        "meta_rev_at_epoch": 96839,
        "meta_bstar": 0.00037416422,
        "meta_mean_motion_dot": 6.15e-06,
        "meta_mean_motion_ddot": 0,
        "tle_line1": "1 30506U 99025AHU 25347.98792709  .00000615  00000+0  37416-3 0  9996",
        "tle_line2": "2 30506  98.7570 353.0260 0070227 344.4345  70.4359 14.08652089968392"
      },
      "geometry": {
        "type": "Point",
        "coordinates": [
          -23.285451841166257,
          62.205713589460885
        ]
      }
    },
    {
      "type": "Feature",
      "properties": {
        "norad_id": 30507,
        "name": "FENGYUN 1C DEB",
        "group": "fengyun-1c-debris",
        "lat": -31.937730408837613,
        "lon": -132.48106214375534,
        "alt_km": 784.4253852422671,
        "timestamp": "2025-12-14T16:47:40.960469+00:00",
        "meta_object_name": "FENGYUN 1C DEB",
        "meta_object_id": "1999-025AHV",
        "meta_epoch": "2025-12-13T16:37:20.925984",
        "meta_mean_motion": 14.13185595,
        "meta_eccentricity": 0.01283878,
        "meta_inclination": 99.0141,
        "meta_ra_of_asc_node": 52.1833,
        "meta_arg_of_pericenter": 173.6524,
        "meta_mean_anomaly": 316.5161,
        "meta_ephemeris_type": 0,
        "meta_classification_type": "U",
        "meta_norad_cat_id": 30507,
        "meta_element_set_no": 999,
        "meta_rev_at_epoch": 96511,
        "meta_bstar": 0.0015425349,
        "meta_mean_motion_dot": 3.078e-05,
        "meta_mean_motion_ddot": 0,
        "tle_line1": "1 30507U 99025AHV 25347.69260331  .00003078  00000+0  15425-2 0  9997",
        "tle_line2": "2 30507  99.0141  52.1833 0128387 173.6524 316.5161 14.13185595965117"
      },
      "geometry": {
        "type": "Point",
        "coordinates": [
          -132.48106214375534,
          -31.937730408837613
        ]
      }
    },
    {
      "type": "Feature",
      "properties": {
        "norad_id": 30509,
        "name": "FENGYUN 1C DEB",
        "group": "fengyun-1c-debris",
        "lat": -15.831974621368259,
        "lon": -137.1581511370567,
        "alt_km": 850.7641661136586,
        "timestamp": "2025-12-14T16:47:40.960479+00:00",
        "meta_object_name": "FENGYUN 1C DEB",
        "meta_object_id": "1999-025AHX",
        "meta_epoch": "2025-12-13T22:10:38.251776",
        "meta_mean_motion": 14.07660204,
        "meta_eccentricity": 0.01017966,
        "meta_inclination": 98.4652,
        "meta_ra_of_asc_node": 219.6942,
        "meta_arg_of_pericenter": 60.0655,
        "meta_mean_anomaly": 316.303,
        "meta_ephemeris_type": 0,
        "meta_classification_type": "U",
        "meta_norad_cat_id": 30509,
        "meta_element_set_no": 999,
        "meta_rev_at_epoch": 95739,
        "meta_bstar": 0.0023470076,
        "meta_mean_motion_dot": 4.12e-05,
        "meta_mean_motion_ddot": 0,
        "tle_line1": "1 30509U 99025AHX 25347.92405384  .00004120  00000+0  23470-2 0  9992",
        "tle_line2": "2 30509  98.4652 219.6942 0101796  60.0655 316.3030 14.07660204957391"
      },
      "geometry": {
        "type": "Point",
        "coordinates": [
          -137.1581511370567,
          -15.831974621368259
        ]
      }
    },
    {
      "type": "Feature",
      "properties": {
        "norad_id": 30510,
        "name": "FENGYUN 1C DEB",
        "group": "fengyun-1c-debris",
        "lat": 69.10593035091489,
        "lon": -24.466140616078864,
        "alt_km": 841.9994818737059,
        "timestamp": "2025-12-14T16:47:40.960490+00:00",
        "meta_object_name": "FENGYUN 1C DEB",
        "meta_object_id": "1999-025AHY",
        "meta_epoch": "2025-12-13T23:45:17.667648",
        "meta_mean_motion": 14.12857232,
        "meta_eccentricity": 0.00787059,
        "meta_inclination": 99.2456,
        "meta_ra_of_asc_node": 0.0585,
        "meta_arg_of_pericenter": 162.8109,
        "meta_mean_anomaly": 260.0692,
        "meta_ephemeris_type": 0,
        "meta_classification_type": "U",
        "meta_norad_cat_id": 30510,
        "meta_element_set_no": 999,
        "meta_rev_at_epoch": 96592,
        "meta_bstar": 0.0017026171,
        "meta_mean_motion_dot": 3.215e-05,
        "meta_mean_motion_ddot": 0,
        "tle_line1": "1 30510U 99025AHY 25347.98978782  .00003215  00000+0  17026-2 0  9991",
        "tle_line2": "2 30510  99.2456   0.0585 0078705 162.8109 260.0692 14.12857232965929"
      },
      "geometry": {
        "type": "Point",
        "coordinates": [
          -24.466140616078864,
          69.10593035091489
        ]
      }
    },
    {
      "type": "Feature",
      "properties": {
        "norad_id": 30514,
        "name": "FENGYUN 1C DEB",
        "group": "fengyun-1c-debris",
        "lat": 7.529127585198684,
        "lon": 11.058269716515538,
        "alt_km": 756.548608918738,
        "timestamp": "2025-12-14T16:47:40.960500+00:00",
        "meta_object_name": "FENGYUN 1C DEB",
        "meta_object_id": "1999-025AJC",
        "meta_epoch": "2025-12-14T00:01:03.579168",
        "meta_mean_motion": 14.34361858,
        "meta_eccentricity": 0.0174502,
        "meta_inclination": 98.4137,
        "meta_ra_of_asc_node": 11.4983,
        "meta_arg_of_pericenter": 90.3935,
        "meta_mean_anomaly": 271.7248,
        "meta_ephemeris_type": 0,
        "meta_classification_type": "U",
        "meta_norad_cat_id": 30514,
        "meta_element_set_no": 999,
        "meta_rev_at_epoch": 98243,
        "meta_bstar": 0.00067334394,
        "meta_mean_motion_dot": 2.202e-05,
        "meta_mean_motion_ddot": 0,
        "tle_line1": "1 30514U 99025AJC 25348.00073587  .00002202  00000+0  67334-3 0  9991",
        "tle_line2": "2 30514  98.4137  11.4983 0174502  90.3935 271.7248 14.34361858982431"
      },
      "geometry": {
        "type": "Point",
        "coordinates": [
          11.058269716515538,
          7.529127585198684
        ]
      }
    }
  ]
}